ONEWEB-0422             
1 51626U 22012E   26178.02317367 -.00000018  00000+0 -80066-4 0  9994
2 51626  87.9140   3.9019 0001327 102.8235 257.3045 13.17649488215103
ONEWEB-0423             
1 51627U 22012F   26178.01641274  .00000002  00000+0 -27211-4 0  9996
2 51627  87.9133   3.9082 0001858  85.9771 274.1573 13.17651001214994
ONEWEB-0425             
1 51628U 22012G   26178.11120647  .00001071  00000+0  30307-2 0  9998
2 51628  87.8830  34.2903 0002052  76.0235 284.1121 13.10368749210623
ONEWEB-0428             
1 51629U 22012H   26178.09084278  .00000329  00000+0  90501-3 0  9993
2 51629  87.8825  34.3012 0001769  85.3098 274.8231 13.10370279210588
ONEWEB-0431             
1 51630U 22012J   26178.13649861  .00000582  00000+0  16298-2 0  9996
2 51630  87.8825  34.2845 0001968 103.8146 256.3201 13.10371534210648
ONEWEB-0434             
1 51631U 22012K   26178.11471773 -.00000093  00000+0 -30220-3 0  9991
2 51631  87.8846  34.3155 0001623  90.7469 269.3844 13.10366568210623
ONEWEB-0435             
1 51632U 22012L   26178.12135598  .00000598  00000+0  16754-2 0  9998
2 51632  87.8822  34.2983 0001623  92.9396 267.1917 13.10375556210612
ONEWEB-0436             
1 51633U 22012M   26178.08391547  .00000002  00000+0 -28272-4 0  9993
2 51633  87.9139   3.8771 0001721  94.9245 265.2083 13.17649396214986
ONEWEB-0438             
1 51634U 22012N   26178.10611529  .00000578  00000+0  16204-2 0  9999
2 51634  87.8828  34.3053 0001965  80.4384 279.6965 13.10373768210644
ONEWEB-0439             
1 51635U 22012P   26178.10951007  .00000776  00000+0  21860-2 0  9992
2 51635  87.8827  34.2919 0001769  82.1441 277.9887 13.10373517210623
ONEWEB-0442             
1 51636U 22012Q   26178.07634198  .00001049  00000+0  26693-2 0  9991
2 51636  87.9130   3.9106 0002182  77.2003 282.9372 13.17643619214979
ONEWEB-0443             
1 51637U 22012R   26178.01978397 -.00000041  00000+0 -13997-3 0  9995
2 51637  87.9130   3.9228 0001626  81.7247 278.4069 13.17649948215017
ONEWEB-0444             
1 51638U 22012S   26178.09932344  .00000466  00000+0  12981-2 0  9996
2 51638  87.8823  34.2918 0001567  81.1993 278.9312 13.10374203210636
ONEWEB-0445             
1 51639U 22012T   26178.11965855  .00000575  00000+0  16111-2 0  9993
2 51639  87.8835  34.2770 0002084  88.6901 271.4465 13.10374438210640
ONEWEB-0446             
1 51640U 22012U   26178.09762080 -.00000432  00000+0 -12739-2 0  9993
2 51640  87.8826  34.3101 0002103  87.3247 272.8121 13.10384195210625
ONEWEB-0448             
1 51641U 22012V   26178.10270995 -.00000241  00000+0 -72634-3 0  9994
2 51641  87.8825  34.3052 0001733  82.5429 277.5895 13.10362440210592
ONEWEB-0449             
1 51642U 22012W   26178.10781117  .00000680  00000+0  19101-2 0  9992
2 51642  87.8833  34.2903 0002309  73.5750 286.5631 13.10376829210609
ONEWEB-0451             
1 51643U 22012X   26178.08055076  .00000036  00000+0  60425-4 0  9990
2 51643  87.9141   3.8756 0001907  82.6240 277.5108 13.17649822214964
ONEWEB-0452             
1 51644U 22012Y   26178.07885131  .00000006  00000+0 -18012-4 0  9996
2 51644  87.9130   3.9118 0001732  80.1744 279.9583 13.17649811214976
ONEWEB-0456             
1 51646U 22012AA  26178.11625457  .00000279  00000+0  76159-3 0  9992
2 51646  87.8839  34.2760 0001656  85.7895 274.3422 13.10374974210645
ONEWEB-0457             
1 51647U 22012AB  26178.09410025 -.00000188  00000+0 -57591-3 0  9993
2 51647  87.8827  34.2986 0002229  84.3482 275.7900 13.10371508210643
ONEWEB-0458             
1 51648U 22012AC  26178.11543645  .00000348  00000+0  96069-3 0  9991
2 51648  87.8830  34.2818 0001739  77.6636 282.4686 13.10376387210605
ONEWEB-0461             
1 51649U 22012AD  26178.10079537 -.00000008  00000+0 -54667-4 0  9999
2 51649  87.9140   3.8852 0002004  89.8749 270.2612 13.17648735215196
ONEWEB-0463             
1 51650U 22012AE  26178.08223862  .00000021  00000+0  20059-4 0  9991
2 51650  87.9131   3.9107 0002021  90.4122 269.7241 13.17649270214975
ONEWEB-0464             
1 51651U 22012AF  26178.11289605  .00000752  00000+0  21183-2 0  9991
2 51651  87.8829  34.3035 0001488  83.0113 277.1183 13.10375053210625
ONEWEB-0468             
1 51652U 22012AG  26178.11795331 -.00000222  00000+0 -67202-3 0  9997
2 51652  87.8826  34.2959 0001590  84.1024 276.0284 13.10377747210604
ONEWEB-0473             
1 51653U 22012AH  26178.10443700  .00000964  00000+0  27258-2 0  9994
2 51653  87.8824  34.3012 0001786  82.8172 277.3159 13.10372268210608
ONEWEB-0474             
1 51654U 22012AJ  26178.01955978 -.00000540  00000+0 -15844-2 0  9990
2 51654  87.8834  34.3033 0001540  81.8846 278.2456 13.10374619210587
ONEWEB-0475             
1 51655U 22012AK  26178.01811375  .00000007  00000+0 -16117-4 0  9996
2 51655  87.9133   3.9166 0001259  81.2666 278.8608 13.17648968214982
ONEWEB-0490             
1 54113U 22138A   26178.06658885  .00000038  00000+0  61843-4 0  9996
2 54113  87.9182 302.9994 0001828 104.6216 255.5120 13.19724976178135
ONEWEB-0492             
1 54114U 22138B   26178.09185741 -.00000021  00000+0 -85644-4 0  9995
2 54114  87.9179 302.9951 0002014 106.9146 253.2207 13.19725897178145
