OBJECT_NAME,OBJECT_ID,EPOCH,MEAN_MOTION,ECCENTRICITY,INCLINATION,RA_OF_ASC_NODE,ARG_OF_PERICENTER,MEAN_ANOMALY,EPHEMERIS_TYPE,CLASSIFICATION_TYPE,NORAD_CAT_ID,ELEMENT_SET_NO,REV_AT_EPOCH,BSTAR,MEAN_MOTION_DOT,MEAN_MOTION_DDOT
ONEWEB-0422,2022-012E,2026-06-27T00:33:22.205088,13.17649488,.0001327,87.9140,3.9019,102.8235,257.3045,0,U,51626,999,21510,-.80066E-4,-.18E-6,0
ONEWEB-0423,2022-012F,2026-06-27T00:23:38.060736,13.17651001,.0001858,87.9133,3.9082,85.9771,274.1573,0,U,51627,999,21499,-.27211E-4,.2E-7,0
ONEWEB-0425,2022-012G,2026-06-27T02:40:08.239008,13.10368749,.0002052,87.8830,34.2903,76.0235,284.1121,0,U,51628,999,21062,.30307E-2,.1071E-4,0
ONEWEB-0428,2022-012H,2026-06-27T02:10:48.816192,13.10370279,.0001769,87.8825,34.3012,85.3098,274.8231,0,U,51629,999,21058,.90501E-3,.329E-5,0
ONEWEB-0431,2022-012J,2026-06-27T03:16:33.479904,13.10371534,.0001968,87.8825,34.2845,103.8146,256.3201,0,U,51630,999,21064,.16298E-2,.582E-5,0
ONEWEB-0434,2022-012K,2026-06-27T02:45:11.611872,13.10366568,.0001623,87.8846,34.3155,90.7469,269.3844,0,U,51631,999,21062,-.3022E-3,-.93E-6,0
ONEWEB-0435,2022-012L,2026-06-27T02:54:45.156672,13.10375556,.0001623,87.8822,34.2983,92.9396,267.1917,0,U,51632,999,21061,.16754E-2,.598E-5,0
ONEWEB-0436,2022-012M,2026-06-27T02:00:50.296608,13.17649396,.0001721,87.9139,3.8771,94.9245,265.2083,0,U,51633,999,21498,-.28272E-4,.2E-7,0
ONEWEB-0438,2022-012N,2026-06-27T02:32:48.361056,13.10373768,.0001965,87.8828,34.3053,80.4384,279.6965,0,U,51634,999,21064,.16204E-2,.578E-5,0
ONEWEB-0439,2022-012P,2026-06-27T02:37:41.670048,13.10373517,.0001769,87.8827,34.2919,82.1441,277.9887,0,U,51635,999,21062,.2186E-2,.776E-5,0
ONEWEB-0442,2022-012Q,2026-06-27T01:49:55.947072,13.17643619,.0002182,87.9130,3.9106,77.2003,282.9372,0,U,51636,999,21497,.26693E-2,.1049E-4,0
ONEWEB-0443,2022-012R,2026-06-27T00:28:29.335008,13.17649948,.0001626,87.9130,3.9228,81.7247,278.4069,0,U,51637,999,21501,-.13997E-3,-.41E-6,0
ONEWEB-0444,2022-012S,2026-06-27T02:23:01.545216,13.10374203,.0001567,87.8823,34.2918,81.1993,278.9312,0,U,51638,999,21063,.12981E-2,.466E-5,0
ONEWEB-0445,2022-012T,2026-06-27T02:52:18.498720,13.10374438,.0002084,87.8835,34.2770,88.6901,271.4465,0,U,51639,999,21064,.16111E-2,.575E-5,0
ONEWEB-0446,2022-012U,2026-06-27T02:20:34.437120,13.10384195,.0002103,87.8826,34.3101,87.3247,272.8121,0,U,51640,999,21062,-.12739E-2,-.432E-5,0
ONEWEB-0448,2022-012V,2026-06-27T02:27:54.139680,13.10362440,.0001733,87.8825,34.3052,82.5429,277.5895,0,U,51641,999,21059,-.72634E-3,-.241E-5,0
ONEWEB-0449,2022-012W,2026-06-27T02:35:14.885088,13.10376829,.0002309,87.8833,34.2903,73.5750,286.5631,0,U,51642,999,21060,.19101E-2,.68E-5,0
ONEWEB-0451,2022-012X,2026-06-27T01:55:59.585664,13.17649822,.0001907,87.9141,3.8756,82.6240,277.5108,0,U,51643,999,21496,.60425E-4,.36E-6,0
ONEWEB-0452,2022-012Y,2026-06-27T01:53:32.753184,13.17649811,.0001732,87.9130,3.9118,80.1744,279.9583,0,U,51644,999,21497,-.18012E-4,.6E-7,0
ONEWEB-0456,2022-012AA,2026-06-27T02:47:24.394848,13.10374974,.0001656,87.8839,34.2760,85.7895,274.3422,0,U,51646,999,21064,.76159E-3,.279E-5,0
ONEWEB-0457,2022-012AB,2026-06-27T02:15:30.261600,13.10371508,.0002229,87.8827,34.2986,84.3482,275.7900,0,U,51647,999,21064,-.57591E-3,-.188E-5,0
ONEWEB-0458,2022-012AC,2026-06-27T02:46:13.709280,13.10376387,.0001739,87.8830,34.2818,77.6636,282.4686,0,U,51648,999,21060,.96069E-3,.348E-5,0
ONEWEB-0461,2022-012AD,2026-06-27T02:25:08.719968,13.17648735,.0002004,87.9140,3.8852,89.8749,270.2612,0,U,51649,999,21519,-.54667E-4,-.8E-7,0
ONEWEB-0463,2022-012AE,2026-06-27T01:58:25.416768,13.17649270,.0002021,87.9131,3.9107,90.4122,269.7241,0,U,51650,999,21497,.20059E-4,.21E-6,0
ONEWEB-0464,2022-012AF,2026-06-27T02:42:34.218720,13.10375053,.0001488,87.8829,34.3035,83.0113,277.1183,0,U,51651,999,21062,.21183E-2,.752E-5,0
ONEWEB-0468,2022-012AG,2026-06-27T02:49:51.165984,13.10377747,.000159,87.8826,34.2959,84.1024,276.0284,0,U,51652,999,21060,-.67202E-3,-.222E-5,0
ONEWEB-0473,2022-012AH,2026-06-27T02:30:23.356800,13.10372268,.0001786,87.8824,34.3012,82.8172,277.3159,0,U,51653,999,21060,.27258E-2,.964E-5,0
ONEWEB-0474,2022-012AJ,2026-06-27T00:28:09.964992,13.10374619,.000154,87.8834,34.3033,81.8846,278.2456,0,U,51654,999,21058,-.15844E-2,-.54E-5,0
ONEWEB-0475,2022-012AK,2026-06-27T00:26:05.028000,13.17648968,.0001259,87.9133,3.9166,81.2666,278.8608,0,U,51655,999,21498,-.16117E-4,.7E-7,0
ONEWEB-0490,2022-138A,2026-06-27T01:35:53.276640,13.19724976,.0001828,87.9182,302.9994,104.6216,255.5120,0,U,54113,999,17813,.61843E-4,.38E-6,0
ONEWEB-0492,2022-138B,2026-06-27T02:12:16.480224,13.19725897,.0002014,87.9179,302.9951,106.9146,253.2207,0,U,54114,999,17814,-.85644E-4,-.21E-6,0
